GLOBALSTAR M045 [-]     
1 25676U 99019A   24087.45633516 -.00000007  00000+0  76610-3 0  9998
2 25676  51.9955 138.5165 0000749  97.0111 276.6880 12.27034217138558
GLOBALSTAR M019 [-]     
1 25677U 99019B   24087.63992878 -.00000001  00000+0  92946-3 0  9992
2 25677  51.9865 236.9428 0001815 125.2465 315.6682 12.13854285130911
GLOBALSTAR M044 [-]     
1 25678U 99019C   24087.51810373 -.00000049  00000+0  48730-3 0  9993
2 25678  51.9950 132.7624 0006122 256.0103 252.4143 11.90230064118133
GLOBALSTAR M042 [-]     
1 25679U 99019D   24087.64169559 -.00000074  00000+0  17011-3 0  9997
2 25679  51.9998 231.5360 0003790 101.2035 272.3846 12.22058376130667
GLOBALSTAR M025 [-]     
1 25770U 99031A   24087.37464734 -.00000052  00000+0  48665-3 0  9991
2 25770  51.9789 114.3376 0001602 127.6878 244.8860 11.22549824431531
GLOBALSTAR M049 [-]     
1 25771U 99031B   24087.45502495  .00000028  00000+0  32250-2 0  9992
2 25771  51.9844 126.4646 0002619 346.2381  13.8344 11.12103292 67726
GLOBALSTAR M047 [-]     
1 25772U 99031C   24087.48774475 -.00000031  00000+0  10653-2 0  9993
2 25772  51.9819 166.0370 0016609 214.0634 145.9107 11.31919452420529
GLOBALSTAR M052 [-]     
1 25773U 99031D   24087.62328409 -.00000041  00000+0  82394-3 0  9995
2 25773  51.9848 241.0384 0003345 143.4527 298.5757 11.15049671428691
